[{"OBJECT_NAME":"EAGLET-I","OBJECT_ID":"2018-099AJ","EPOCH":"2026-03-09T16:28:56.807904","MEAN_MOTION":15.12108145,"ECCENTRICITY":0.00104863,"INCLINATION":97.4369,"RA_OF_ASC_NODE":120.9821,"ARG_OF_PERICENTER":336.8524,"MEAN_ANOMALY":23.2233,"EPHEMERIS_TYPE":0,"CLASSIFICATION_TYPE":"U","NORAD_CAT_ID":43790,"ELEMENT_SET_NO":999,"REV_AT_EPOCH":39729,"BSTAR":0.0003526184,"MEAN_MOTION_DOT":6.017e-5,"MEAN_MOTION_DDOT":0},{"OBJECT_NAME":"STARLINK-3298","OBJECT_ID":"2021-125K","EPOCH":"2026-03-09T19:45:28.942560","MEAN_MOTION":15.08834528,"ECCENTRICITY":0.00013415,"INCLINATION":53.2151,"RA_OF_ASC_NODE":258.5234,"ARG_OF_PERICENTER":86.765,"MEAN_ANOMALY":273.3496,"EPHEMERIS_TYPE":0,"CLASSIFICATION_TYPE":"U","NORAD_CAT_ID":50165,"ELEMENT_SET_NO":999,"REV_AT_EPOCH":23652,"BSTAR":1.4302685e-5,"MEAN_MOTION_DOT":-6.0e-7,"MEAN_MOTION_DDOT":0}]
